#cP2017 12 26  0  0  0.00000000      96 ORBIT IGS14 HLM  IGS
## 1981 172800.00000000   900.00000000 58113 0.0000000000000
+   32   G01G02G03G04G05G06G07G08G09G10G11G12G13G14G15G16G17
+        G18G19G20G21G22G23G24G25G26G27G28G29G30G31G32  0  0
+          0  0  0  0  0  0  0  0  0  0  0  0  0  0  0  0  0
+          0  0  0  0  0  0  0  0  0  0  0  0  0  0  0  0  0
+          0  0  0  0  0  0  0  0  0  0  0  0  0  0  0  0  0
++         2  2  2  0  2  2  2  2  2  2  2  2  2  2  2  2  2
++         2  2  2  2  2  2  2  2  2  2  2  2  2  2  2  0  0
++         0  0  0  0  0  0  0  0  0  0  0  0  0  0  0  0  0
++         0  0  0  0  0  0  0  0  0  0  0  0  0  0  0  0  0
++         0  0  0  0  0  0  0  0  0  0  0  0  0  0  0  0  0
%c G  cc GPS ccc cccc cccc cccc cccc ccccc ccccc ccccc ccccc
%c cc cc ccc ccc cccc cccc cccc cccc ccccc ccccc ccccc ccccc
%f  1.2500000  1.025000000  0.00000000000  0.000000000000000
%f  0.0000000  0.000000000  0.00000000000  0.000000000000000
%i    0    0    0    0      0      0      0      0         0
%i    0    0    0    0      0      0      0      0         0
/* FINAL ORBIT COMBINATION FROM WEIGHTED AVERAGE OF:        
/* cod emr esa gfz grg jpl mit ngs sio                      
/* REFERENCED TO IGS TIME (IGST) AND TO WEIGHTED MEAN POLE: 
/* PCV:IGS14_1977 OL/AL:FES2004  NONE     Y  ORB:CMB CLK:CMB
*  2017 12 26 18 45  0.00000000
PG01 -14579.787313   3322.835886  21815.544702    -19.538422  4  3  4  85       
PG02  14083.696399  19590.165957 -10885.824245    244.994870  5  5  2   5       
PG03 -21845.824746  11180.114612  10077.454635    -20.617483  5  8  5  89       
PG04   1154.871083 -18440.066600 -19202.216445 999999.999999
PG05  14406.996209   7214.056800 -21243.352899    -18.675440  6  4  5 101       
PG06   7486.771612  25421.963000  -1620.241188    414.008349  6  5  4  59       
PG07  -7582.479490  18952.879433 -16546.583031    260.430653     5  6  95       
PG08 -25977.606866  -4976.592770   3129.032497    -85.498350  3  5     93       
PG09 -14041.402191  10754.482707 -19854.433197    487.181832  5  5  4 103       
PG10   5921.051783 -20733.462262  15437.890037    136.125298  6  6  1  77       
PG11 -18363.722292     84.947680  18590.494635   -732.014499  3  5  4  76       
PG12  21927.677040  -7927.856342  12361.150791    358.522835  2  3  6  96       
PG13  23181.525072  12475.458425  -3584.952760    -95.014386  6 10  5  88       
PG14 -12233.770810 -17032.109600  16677.525034    -91.303296  5  8  5 110       
PG15  26327.011051   2362.302209   4022.251865   -357.419094  2  8  5 113       
PG16 -13950.414594  -7040.939121 -21674.149404     34.952910     9  5  91       
PG17   2839.283250  16075.060350  21364.712390   -135.421563  7  9  5  91       
PG18  13892.696977 -21787.171469   6331.437065    633.551156  6 10  6 112       
PG19  10894.768055  16725.591199  17134.849383   -467.590155  6  9  6 126       
PG20  21057.751672  -9924.895692 -12903.121748    496.627175  3  6  6  91       
PG21   4800.348261 -21124.933278 -14542.697832   -448.457225  4  7  6 114       
PG22 -20918.795595   4780.814947  15904.489280   -235.667823  4  5  3  83       
PG23 -23377.542654   2863.067054 -12420.225709   -219.051468  5  3  7 105       
PG24  15906.751919   -278.399636  21194.056604    -43.992679  5  6  5 110       
PG25  19570.307376 -17731.418214   1007.836489   -512.168265  6  5  3 117       
PG26  -4966.732025 -15708.198668 -20803.469843   -310.575022  6  8  4  52       
PG27 -21871.390908 -12479.255139  -8874.194970    358.731170  6  5  6 100       
PG28 -10327.619232  20406.194833  14165.165678    674.387905  7  9  6  70       
PG29  18270.408730  -6377.492521 -18197.465202    519.815532  6  7  5  88       
PG30  -1845.417068  24872.831061  -8910.399138    117.687143  5  4  7  82       
PG31  -7240.630131 -25173.534925  -2632.024270    152.850711  6  9  3  80       
PG32  -4782.227548 -16310.789257  20446.535637   -531.363623  2  5  5  88       
*  2017 12 26 19  0  0.00000000
PG01 -15241.443349    900.879761  21622.838379    -19.540865  4  3  4  85       
PG02  14220.691916  20773.738656  -8370.698433    244.985887  5  6  2  86       
PG03 -21099.145418  10095.867229  12517.078144    -20.611860  4  7  5  74       
PG04   2721.092918 -19794.656815 -17584.686626 999999.999999
PG05  12762.932235   9006.463708 -21590.874798    -18.674405  6  2  5  87       
PG06   7270.869908  25508.326246   1253.884241    414.008959  5  5  5  69       
PG07  -8271.785640  17021.960969 -18248.683155    260.425903     5  6  74       
PG08 -26107.213137  -5238.360022    274.290968    -85.499878  3  5  1 114       
PG09 -16142.246793  10114.910929 -18549.192564    487.185335  5  5  4  85       
PG10   7210.256269 -21774.955258  13291.069707    136.130984  6  6     93       
PG11 -19572.136409  -1740.292467  17256.582838   -732.015762  3  5  4  78       
PG12  20867.185293  -6753.310215  14667.035846    358.521356  2  4  6  74       
PG13  22580.754528  12487.208828  -6381.691636    -95.014443  7 10  5  92       
PG14 -10341.792575 -16536.045905  18383.311789    -91.304038  4  7  5 103       
PG15  26591.639594   2728.425802   1276.462037   -357.419153  3  9  5 101       
PG16 -12100.470890  -8673.482524 -22155.255231     34.952481  3  9  6  99       
PG17    540.965785  15404.533112  22029.694554   -135.419077  7  9  5 108       
PG18  14492.098535 -21938.812036   3613.995871    633.551382  6 10  6  98       
PG19   8865.181499  16135.871399  18784.034235   -467.588092  6  9  6 127       
PG20  20280.985259  -8519.857667 -15008.352786    496.627993  3  5  6  88       
PG21   5620.462707 -19383.130973 -16452.078052   -448.453793  4  7  6 114       
PG22 -19835.235165   3220.167697  17616.539053   -235.679196  4  5  4  80       
PG23 -24595.102541   2324.399218 -10038.094572   -219.051693  5  4  8  96       
PG24  16594.813580   2035.833740  20589.406409    -43.991574  5  7  5 102       
PG25  19525.368897 -17356.562073   3888.438880   -512.173844  6  5  4  98       
PG26  -3296.888854 -17334.397635 -19810.019940   -310.562262  6  8  4  66       
PG27 -20719.746925 -12365.882118 -11423.557962    358.733466  6  6  5 101       
PG28 -11461.460755  21217.554460  11798.433656    674.391042  7  9  6  73       
PG29  20114.083221  -5663.857878 -16398.111765    519.810692  6  6  5  87       
PG30  -2365.770360  23789.971560 -11407.577453    117.684373  6  5  7  76       
PG31  -7007.818427 -25379.225845    252.960712    152.848440  6  9  3 103       
PG32  -2454.556287 -15808.855858  21232.384917   -531.364817  2  4  5 101       
*  2017 12 26 19 15  0.00000000
PG01 -16016.346784  -1438.487298  21054.268885    -19.543284  3  2  3  90       
PG02  14309.824148  21672.662662  -5710.960698    244.976767  6  6  2  82       
PG03 -20236.478948   8774.701884  14740.518087    -20.606225  3  7  5  88       
PG04   4078.400042 -21087.653958 -15666.491819 999999.999999
PG05  11198.016768  10894.893085 -21570.583593    -18.673845  6     4  95       
PG06   6952.820694  25299.630777   4106.416795    414.009566  6  6  5  73       
PG07  -9112.019052  14962.411154 -19627.027167    260.421140  2  5  6  79       
PG08 -25932.900526  -5436.021199  -2585.130066    -85.501050  4  6  1 125       
PG09 -18110.362715   9612.568592 -16925.778052    487.188685  5  5  4  89       
PG10   8277.095451 -22687.645551  10914.223382    136.136559  6  7  2  78       
PG11 -20739.602794  -3385.482066  15611.591430   -732.017193  3  5  4  79       
PG12  19699.631382  -5342.694821  16715.459507    358.519864  3  5  6  75       
PG13  21686.335671  12436.271417  -9068.859161    -95.014529  7 10  5  90       
PG14  -8259.300025 -16095.056260  19781.215303    -91.304335  3  6  5 108       
PG15  26567.510493   3044.528513  -1490.826463   -357.419255  4  9  5 100       
PG16 -10320.281691 -10434.692346 -22260.784132     34.952008  4  9  6  92       
PG17  -1844.372971  14852.256313  22329.231371   -135.416757  7  8  5 105       
PG18  14897.933827 -21872.007810    834.268426    633.551548  6 10  7 100       
PG19   6643.067510  15608.757454  20100.404333   -467.585941  6  9  6 132       
PG20  19443.581555  -6899.720976 -16857.328151    496.629286  3  4  6 100       
PG21   6600.935819 -17488.670207 -18060.975380   -448.450476  3  7  6 103       
PG22 -18718.787394   1474.298385  19030.952356   -235.690964  4  5  4  71       
PG23 -25563.006438   1899.762749  -7485.215201   -219.051526  6  5  8 104       
PG24  17363.336080   4227.896439  19628.967780    -43.993691  5  7  6 109       
PG25  19287.856947 -16733.676704   6700.973431   -512.179366  6  5  4  94       
PG26  -1796.890884 -18943.802224 -18474.493591   -310.549479  6  8  4  39       
PG27 -19291.603742 -12265.425714 -13779.310097    358.735732  5  6  5 114       
PG28 -12355.178547  21899.405759   9235.108640    674.393829  7  9  5  62       
PG29  21781.260078  -5107.771876 -14316.632308    519.806102  5  6  6  87       
PG30  -3012.941384  22472.969548 -13706.857641    117.681603  6  5  7  65       
PG31  -6688.296710 -25281.507198   3133.481794    152.845957  6  8  3 104       
PG32    -36.422325 -15415.249605  21653.907421   -531.366012  4  3  4  96       
EOF
